0 COSMOS 532
1 06267U 72087E   13281.72324281 -.00000027  00000-0 -52361-4 0  8170
2 06267 074.0382 003.6151 0107830 178.5542 298.8626 12.69653802897449
0 COSMOS 532
1 06267U 72087E   13283.92915634 -.00000014  00000-0  15302-4 0  8182
2 06267 074.0382 000.5757 0107771 175.1192 301.5439 12.69653655897726
0 COSMOS 532
1 06267U 72087E   13286.19477009  .00000006  00000-0  11122-3 0  8199
2 06267 074.0378 357.4542 0107730 171.5786 217.1113 12.69653480898011
0 COSMOS 532
1 06267U 72087E   13288.49547576  .00000012  00000-0  14248-3 0  8202
2 06267 074.0373 354.2842 0107673 167.9924 293.0654 12.69653482898300
0 COSMOS 532
1 06267U 72087E   13290.63519659  .00000000  00000-0  82702-4 0  8211
2 06267 074.0368 351.3363 0107630 164.6544 353.2000 12.69653768898575
0 COSMOS 532
1 06267U 72087E   13292.75354606 -.00000021  00000-0 -20946-4 0  8223
2 06267 074.0366 348.4172 0107586 161.3402 315.6626 12.69653989898846
0 COSMOS 532
1 06267U 72087E   13295.18265750 -.00000023  00000-0 -32494-4 0  8238
2 06267 074.0364 345.0697 0107531 157.5413 258.5435 12.69654047899152
